GSAT0101 (GALILEO-PFM)  
1 37846U 11060A   26138.51921061 -.00000076  00000+0  00000+0 0  9993
2 37846  57.0042 342.5656 0003697  40.2031 319.8521  1.70475570 90615
GSAT0102 (GALILEO-FM2)  
1 37847U 11060B   26139.60232310 -.00000080  00000+0  00000+0 0  9992
2 37847  57.0073 342.5367 0003976  10.3558 340.0246  1.70475812 90632
GSAT0103 (GALILEO-FM3)  
1 38857U 12055A   26139.73280988  .00000020  00000+0  00000+0 0  9990
2 38857  55.7885 102.3256 0005571 299.8602  60.0343  1.70473318 84523
GSAT0201 (GALILEO 5)    
1 40128U 14050A   26140.38967617 -.00000051  00000+0  00000+0 0  9990
2 40128  48.9064 274.5752 1670360 178.3082 182.3637  1.85519828 77801
GSAT0202 (GALILEO 6)    
1 40129U 14050B   26139.02835990 -.00000043  00000+0  00000+0 0  9999
2 40129  48.9252 273.7160 1671271 178.9822 181.4323  1.85520448 79944
GSAT0203 (GALILEO 7)    
1 40544U 15017A   26138.88370209 -.00000078  00000+0  00000+0 0  9992
2 40544  56.7962 342.3941 0002350 296.3175  63.6842  1.70475852 68702
GSAT0204 (GALILEO 8)    
1 40545U 15017B   26140.31258484 -.00000083  00000+0  00000+0 0  9990
2 40545  56.8021 342.3736 0001826 270.2790  89.7214  1.70475536 31771
GSAT0205 (GALILEO 9)    
1 40889U 15045A   26115.63255192 -.00000038  00000+0  00000+0 0  9992
2 40889  54.9613 223.1764 0005159 266.9978  92.9342  1.67410754 66085
GSAT0206 (GALILEO 10)   
1 40890U 15045B   26138.54153424  .00000018  00000+0  00000+0 0  9991
2 40890  54.9534 222.4232 0001595  17.2702 342.8037  1.70473897 66532
GSAT0209 (GALILEO 12)   
1 41174U 15079A   26139.29601999  .00000020  00000+0  00000+0 0  9995
2 41174  55.8114 102.0535 0005617 334.2661  25.6545  1.70473831 64284
GSAT0208 (GALILEO 11)   
1 41175U 15079B   26138.34313006  .00000021  00000+0  00000+0 0  9991
2 41175  55.8088 102.0767 0005091 335.0314  24.8914  1.70473736 64681
GSAT0211 (GALILEO 14)   
1 41549U 16030A   26138.46726544  .00000019  00000+0  00000+0 0  9999
2 41549  55.1040 222.5126 0002472 334.1936  25.8623  1.70473951 62162
GSAT0210 (GALILEO 13)   
1 41550U 16030B   26140.48428466  .00000004  00000+0  00000+0 0  9992
2 41550  55.1019 222.4550 0003239 230.5838 129.4530  1.70473990 62196
GSAT0207 (GALILEO 15)   
1 41859U 16069A   26139.00267678  .00000019  00000+0  00000+0 0  9994
2 41859  55.4814 101.8930 0005771 322.4887  37.4190  1.70473721 58900
GSAT0212 (GALILEO 16)   
1 41860U 16069B   26140.02931116  .00000019  00000+0  00000+0 0  9995
2 41860  55.4799 101.8598 0004757 347.8096  12.1297  1.70473924 59173
GSAT0213 (GALILEO 17)   
1 41861U 16069C   26139.81002380  .00000019  00000+0  00000+0 0  9993
2 41861  55.4819 101.8738 0005578 307.5351  52.3643  1.70474253 59034
GSAT0214 (GALILEO 18)   
1 41862U 16069D   26139.36959220  .00000019  00000+0  00000+0 0  9998
2 41862  55.4803 101.8786 0004716 312.9377  46.9715  1.70473992 59153
GSAT0215 (GALILEO 19)   
1 43055U 17079A   26139.27311130  .00000014  00000+0  00000+0 0  9993
2 43055  55.0813 222.3025 0002770 261.6672  98.3702  1.70474555 52490
GSAT0216 (GALILEO 20)   
1 43056U 17079B   26140.15085850  .00000007  00000+0  00000+0 0  9992
2 43056  55.0819 222.2785 0002734 276.8950  83.1409  1.70474685 52520
GSAT0217 (GALILEO 21)   
1 43057U 17079C   26139.19848642  .00000014  00000+0  00000+0 0  9999
2 43057  55.0798 222.3024 0003757 286.9220  73.1057  1.70474628 52493
GSAT0218 (GALILEO 22)   
1 43058U 17079D   26139.41855227  .00000013  00000+0  00000+0 0  9991
2 43058  55.0795 222.2940 0005085 272.5986  87.4119  1.70474698 52521
GSAT0221 (GALILEO 25)   
1 43564U 18060A   26139.90897247 -.00000081  00000+0  00000+0 0  9992
2 43564  57.1780 342.5438 0003128 315.4757  44.5220  1.70475738 48682
GSAT0222 (GALILEO 26)   
1 43565U 18060B   26137.78225310 -.00000072  00000+0  00000+0 0  9993
2 43565  57.1823 342.6049 0001937 276.5659  83.4431  1.70475454 48696
GSAT0219 (GALILEO 23)   
1 43566U 18060C   26139.17634885 -.00000078  00000+0  00000+0 0  9996
2 43566  57.1811 342.5687 0002775 333.5819  26.4292  1.70475680 48697
GSAT0220 (GALILEO 24)   
1 43567U 18060D   26140.57048762 -.00000083  00000+0  00000+0 0  9992
2 43567  57.1803 342.5305 0002847 324.4055  35.5967  1.70475424 48705
GSAT0223 (GALILEO 27)   
1 49809U 21116A   26139.54221280 -.00000079  00000+0  00000+0 0  9991
2 49809  57.1688 342.4481 0000704 199.9116 339.8409  1.70475557 27691
GSAT0224 (GALILEO 28)   
1 49810U 21116B   26139.94120200 -.00000081  00000+0  00000+0 0  9990
2 49810  57.1717 342.4359 0000500 130.1594  47.0805  1.70475611 27724
GSAT0225 (GALILEO 29)   
1 59598U 24079A   26139.66419780  .00000018  00000+0  00000+0 0  9997
2 59598  55.1040 101.8761 0002227 287.8538  72.5924  1.70473980 12833
GSAT0227 (GALILEO 30)   
1 59600U 24079C   26139.26021830  .00000018  00000+0  00000+0 0  9992
2 59600  55.0977 101.8862 0001623  28.2313 331.7261  1.70474106 12873
GSAT0232 (GALILEO 32)   
1 61182U 24167A   26140.62033888  .00000003  00000+0  00000+0 0  9990
2 61182  55.1922 222.0699 0005561 220.4617 109.7712  1.70474345 10400
GSAT0226 (GALILEO 31)   
1 61183U 24167B   26138.22259443  .00000021  00000+0  00000+0 0  9991
2 61183  55.1918 222.1432 0002345 211.7978 178.2203  1.70474252 10348
GSAT0233 (GALILEO 33)   
1 67160U 25302A   26138.89929920  .00000019  00000+0  00000+0 0  9998
2 67160  54.3182 102.9642 0001581 248.0002 293.8232  1.70474069  2627
GSAT0234 (GALILEO 34)   
1 67162U 25302C   26140.36295444  .00000019  00000+0  00000+0 0  9992
2 67162  54.3207 102.9217 0003623 302.1591 238.0508  1.70474044  2708
